{"fetched_at":"2026-03-29T16:36:15Z","count":15609,"tles":[{"name":"STARLINK-1765","line1":"1 46344U 20062V   26087.80882424  .01430919  13029-2  18339-2 0  9990","line2":"2 46344  53.0310 203.3968 0010179 325.1179  34.9185 16.06838110308412","category":"Starlink"}]}