{
  "norad_id": 46344,
  "name": "STARLINK-1765",
  "history": [
    {
      "epoch": "2026-03-28T19:24:42.414336",
      "apogee_km": 262.2838189918184,
      "perigee_km": 248.77899684697604,
      "latitude_deg": -2.424397233486701,
      "longitude_deg": -27.952872960129753,
      "semi_major_axis_km": 6633.668407919397,
      "eccentricity": 0.0010179,
      "inclination_deg": 53.031,
      "raan_deg": 203.3968,
      "arg_perigee_deg": 325.1179,
      "mean_anomaly_deg": 34.9185,
      "mean_motion_rev_day": 16.0683811
    }
  ]
}